QIANFAN-57              
1 62787U 25016C   25286.98107786  .00000068  00000+0  87231-4 0  9991
2 62787  88.9745 109.3696 0001444  61.8258 298.3039 13.50975053 39138
QIANFAN-58              
1 62788U 25016D   25286.95223281  .00000073  00000+0  93747-4 0  9993
2 62788  88.9715 109.2226 0014616 149.8767 210.3228 13.50974635 39174
QIANFAN-59              
1 62789U 25016E   25286.97690288  .00000079  00000+0  10288-3 0  9995
2 62789  88.9738 109.2796 0014920 153.5713 206.6202 13.50973969 39172
QIANFAN-60              
1 62790U 25016F   25273.45632892  .00000063  00000+0  77135-4 0  9991
2 62790  88.9732 110.6637 0014892 189.3455 170.7422 13.52524324 37336
QIANFAN-61              
1 62791U 25016G   25286.96865139  .00000061  00000+0  75249-4 0  9996
2 62791  88.9787 109.3855 0015489 149.8397 210.3649 13.50974294 39172
QIANFAN-62              
1 62792U 25016H   25286.97288808  .00000064  00000+0  79913-4 0  9995
2 62792  88.9733 109.2859 0016850 150.6737 209.5363 13.50968217 39168
QIANFAN-63              
1 62793U 25016J   25286.92341424  .00000066  00000+0  83763-4 0  9995
2 62793  88.9744 109.2384 0016759 155.9356 204.2581 13.50971222 39194
QIANFAN-64              
1 62794U 25016K   25286.96455565  .00000060  00000+0  73371-4 0  9990
2 62794  88.9728 109.2163 0014897 148.3320 211.8731 13.50972848 39196
